[{"OBJECT_NAME":"STARLINK-5609","OBJECT_ID":"2023-013T","EPOCH":"2026-03-08T23:41:05.603424","MEAN_MOTION":15.02536541,"ECCENTRICITY":0.00010644,"INCLINATION":43.0035,"RA_OF_ASC_NODE":304.1569,"ARG_OF_PERICENTER":275.3373,"MEAN_ANOMALY":84.7348,"EPHEMERIS_TYPE":0,"CLASSIFICATION_TYPE":"U","NORAD_CAT_ID":55348,"ELEMENT_SET_NO":999,"REV_AT_EPOCH":17160,"BSTAR":4.1173318e-5,"MEAN_MOTION_DOT":3.53e-6,"MEAN_MOTION_DDOT":0},{"OBJECT_NAME":"LEMUR-2-ROUNDTRIPPER","OBJECT_ID":"2025-009DG","EPOCH":"2026-03-09T23:04:13.111968","MEAN_MOTION":15.02085493,"ECCENTRICITY":0.00052564,"INCLINATION":97.7294,"RA_OF_ASC_NODE":151.904,"ARG_OF_PERICENTER":121.5792,"MEAN_ANOMALY":238.5946,"EPHEMERIS_TYPE":0,"CLASSIFICATION_TYPE":"U","NORAD_CAT_ID":62711,"ELEMENT_SET_NO":999,"REV_AT_EPOCH":6272,"BSTAR":0.00085047584,"MEAN_MOTION_DOT":0.00011123,"MEAN_MOTION_DDOT":0}]
